INMARSAT 4-F1           
1 28628U 05009A   08105.77016878 -.00000008  00000-0  10000-3 0  6482
2 28628   2.3884 313.7270 0002590  53.1093 177.6282  1.00272893 11123
EXPRESS-AM 2            
1 28629U 05010A   08107.89304019 -.00000146  00000-0  10000-3 0  8279
2 28629   0.0587  49.5557 0001081  69.6037 127.7057  1.00270809 11171
APSTAR 6                
1 28638U 05012A   08107.81060404 -.00000329  00000-0  10000-3 0   163
2 28638   0.0117 225.3789 0002362 157.1426 248.6150  1.00271554 35888
SPACEWAY 1              
1 28644U 05015A   08105.38801333 -.00000120  00000-0  10000-3 0  5194
2 28644   0.0572  26.2043 0000157  85.3032 128.2018  1.00271473 10953
DIRECTV 8               
1 28659U 05019A   08107.52064726 -.00000127  00000-0  00000+0 0  5326
2 28659   0.0446  99.2608 0002531 280.6720 271.6506  1.00271071 10643
GALAXY 28 (G-28)        
1 28702U 05022A   08106.47440944 -.00000200  00000-0  10000-3 0  4700
2 28702   0.0201 162.3364 0003261 199.1212 284.2843  1.00269730 10343
EXPRESS-AM 3            
1 28707U 05023A   08107.49561839 -.00000292  00000-0  10000-3 0  7474
2 28707   0.1334 123.1488 0002258 254.6614 145.6559  1.00268834 10322
THAICOM 4               
1 28786U 05028A   08104.57875485 -.00000380  00000-0  10000-3 0  4102
2 28786   0.0056 298.3427 0002405  77.2762 154.3579  1.00269309  9835
GALAXY 14 (G-14)        
1 28790U 05030A   08106.55351938  .00000021  00000-0  10000-3 0  5137
2 28790   0.0713  60.6203 0002395 318.1930 259.5156  1.00273235  9768
ANIK F1R                
1 28868U 05036A   08104.48007170 -.00000092  00000-0  00000+0 0  4914
2 28868   0.0121 166.8515 0002669 214.2963 246.4028  1.00272380  9581
GALAXY 15 (G-15)        
1 28884U 05041A   08107.52114875  .00000066  00000-0  10000-3 0  4259
2 28884   0.0643  64.5389 0002331 301.6786 253.4213  1.00273124  9201
SYRACUSE 3A             
1 28885U 05041B   08106.79058443  .00000114  00000-0  10000-3 0  4069
2 28885   0.0093 170.5198 0001814 204.5146 160.8680  1.00274052  9292
INMARSAT 4-F2           
1 28899U 05044A   08105.29606637 -.00000309  00000-0  10000-3 0  5401
2 28899   2.4572 304.5736 0002770  78.3847 233.6670  1.00269523  8956
TELKOM 2                
1 28902U 05046A   08107.72737899 -.00000374  00000-0  10000-3 0  4202
2 28902   0.0365 141.4865 0000935 218.0469 225.5489  1.00270198  8879
SPACEWAY 2              
1 28903U 05046B   08107.45577826 -.00000138  00000-0  10000-3 0  4528
2 28903   0.0468  35.5123 0000433 109.7296 124.5816  1.00271206  8953
INSAT-4A                
1 28911U 05049A   08104.74620094 -.00000182  00000-0  10000-3 0  4322
2 28911   0.1006  84.5028 0003365 283.8909 185.4983  1.00270367  8522
METEOSAT-9 (MSG-2)      
1 28912U 05049B   08105.92942058 -.00000017  00000-0  00000+0 0  3681
2 28912   0.6556 242.0677 0001065 187.5592 108.7573  1.00275980  8554
AMC-23                  
1 28924U 05052A   08106.53161306 -.00000021  00000-0  10000-3 0  4428
2 28924   0.0013 247.3579 0003290 132.5084 187.5494  1.00272230  8435
ECHOSTAR 10             
1 28935U 06003A   08106.57350154 -.00000071  00000-0  10000-3 0  4506
2 28935   0.0688  52.5432 0001930 350.5169 257.2893  1.00272523  7964
MTSAT-2                 
1 28937U 06004A   08107.62875601 -.00000255  00000-0  10000-3 0  3968
2 28937   0.0074 256.2341 0003199 114.8488 205.4073  1.00271305  7952
SPAINSAT                
1 28945U 06007A   08105.86563144 -.00000233  00000-0  00000+0 0  2555
2 28945   0.0219  22.6941 0005202   3.4644  98.8235  1.00270654  7700
HOT BIRD 7A             
1 28946U 06007B   08104.69531565  .00000069  00000-0  10000-3 0  1783
2 28946   0.0545 289.4452 0007764 121.9296  54.0903  1.00270887  7745
JCSAT 9                 
1 29045U 06010A   08106.74901322 -.00000343  00000-0  10000-3 0  2897
2 29045   0.0073 313.7703 0001641  79.4286 212.7325  1.00268269  7401
ASTRA 1KR               
1 29055U 06012A   08106.97237038  .00000106  00000-0  00000+0 0  1914
2 29055   0.0693 207.9994 0001542 147.0894 218.6062  1.00272615  7327
GALAXY 16 (G-16)        
1 29236U 06023A   08104.34119302 -.00000144  00000-0  10000-3 0  3122
2 29236   0.0043 274.1502 0002937 103.0399 208.5021  1.00271147  6690
GOES 13                 
1 29155U 06018A   08106.51293659 -.00000103  00000-0  10000-3 0  3995
2 29155   0.1603  79.8377 0001278 233.1827 330.4454  1.00271896  6967
SATMEX 6                
1 29162U 06020A   08106.58449255 -.00000052  00000-0  10000-3 0  2675
2 29162   0.0500  55.3411 0002297 318.2232 287.9169  1.00271254  6928
THAICOM 5               
1 29163U 06020B   08107.78770403 -.00000133  00000-0  10000-3 0  3807
2 29163   0.0213 259.2076 0004540 116.5613 191.6033  1.00271452  7008
KAZSAT 1                
1 29230U 06022A   08105.82767676 -.00000338  00000-0  10000-3 0  3385
2 29230   0.0412  73.1577 0001471 348.0250 183.0763  1.00268558  6706
HOT BIRD 8              
1 29270U 06032A   08104.97497586  .00000069  00000-0  10000-3 0  1530
2 29270   0.0397 301.1905 0003474  73.5694 191.7200  1.00273334  6304
JCSAT 10                
1 29272U 06033A   08107.81090314 -.00000357  00000-0  10000-3 0  3035
2 29272   0.6100  84.7549 0002865 287.8550 252.0936  1.00268281  6229
SYRACUSE 3B             
1 29273U 06033B   08104.64295028 -.00000061  00000-0  10000-3 0  2281
2 29273   0.0169 196.7686 0002975 183.7890  47.8882  1.00272254  6188
KOREASAT 5 (MUGUNGWHA 5)
1 29349U 06034A   08107.73654365 -.00000370  00000-0  10000-3 0  2892
2 29349   0.0088 184.8158 0003875 284.5129 114.0751  1.00277346  6100
ZHONGXING-22A           
1 29398U 06038A   08107.00161766 -.00000304  00000-0  10000-3 0  4583
2 29398   0.0903  82.4242 0003720 322.4152 258.2071  1.00269218  5894
DIRECTV 9S              
1 29494U 06043A   08105.21358375 -.00000131  00000-0  00000-0 0  2752
2 29494   0.0174 350.5313 0002707  11.3464 176.6563  1.00271541  5546
OPTUS D1                
1 29495U 06043B   08106.63494010 -.00000126  00000-0  10000-3 0  1912
2 29495   0.0273  41.2567 0002834 334.2922 217.1720  1.00271369  5598
XM-4 (BLUES)            
1 29520U 06049A   08105.50544352 -.00000042  00000-0  10000-3 0  2195
2 29520   0.0017 183.5582 0000108  38.5211  47.9409  1.00271885  5447
BADR-4 (ARABSAT-4B)     
1 29526U 06051A   08105.76956469  .00000127  00000-0  10000-3 0  2607
2 29526   0.0503 335.4336 0005353   7.4579 163.4025  1.00272567  5331
FENGYUN 2D              
1 29640U 06053A   08107.60472030 -.00000212  00000-0  10000-3 0  3504
2 29640   1.3559 263.3537 0000301  46.4238 199.4959  1.00277289  5025
WILDBLUE-1              
1 29643U 06054A   08105.35496642 -.00000067  00000-0  10000-3 0  2432
2 29643   0.0265  85.2526 0002201 270.9815 223.3242  1.00271781  4980
AMC 18                  
1 29644U 06054B   08107.45519855 -.00000102  00000-0  10000-3 0  2416
2 29644   0.0665 108.9111 0003307 268.2256 246.7559  1.00272103  5019
MEASAT-3                
1 29648U 06056A   08106.84848321 -.00000255  00000-0  10000-3 0  2348
2 29648   0.0020  17.7317 0000971  28.1452 195.4117  1.00269333  5020
KIKU 8 (ETS 8)          
1 29656U 06059A   08105.55779832 -.00000252  00000-0  10000-3 0  2186
2 29656   0.0941  74.7109 0001088 284.7195 190.4726  1.00271191  4909
BEIDOU 1D               
1 30323U 07003A   08106.32117119 -.00000343  00000-0  10000-3 0  3686
2 30323   5.4230 281.8566 0120140 291.9431 249.9877  1.00269731  4852
INSAT-4B                
1 30793U 07007A   08106.62806075 -.00000273  00000-0  10000-3 0  1927
2 30793   0.0757  85.0794 0003688 328.7518 109.9079  1.00272456  4034
SKYNET 5A               
1 30794U 07007B   08105.97733671 -.00000029  00000-0  00000+0 0  1841
2 30794   0.0699   2.1673 0003196  14.6716 177.3743  1.00272561  4192
ANIK F3                 
1 31102U 07009A   08107.45083247 -.00000013  00000-0  10000-3 0  1577
2 31102   0.0055 204.9439 0002393 172.9066 230.6815  1.00271226  3793
ASTRA 1L                
1 31306U 07016A   08106.97237189  .00000106  00000-0  00000+0 0  1468
2 31306   0.0402 228.0154 0003852 119.1102 226.5786  1.00273526  3539
GALAXY 17 (G-17)        
1 31307U 07016B   08107.47808483 -.00000081  00000-0  10000-3 0  1835
2 31307   0.0612  20.9655 0003163 314.0704 300.3939  0.99986782  3530
NIGCOMSAT 1             
1 31395U 07018A   08107.60435410  .00000134  00000-0  10000-3 0  1686
2 31395   0.0320 256.7862 0002905  95.2559 112.6449  1.00276331  3536
SINOSAT 3               
1 31577U 07021A   08105.70546161 -.00000371  00000-0  10000-3 0  2323
2 31577   0.0650  91.3837 0004298 303.9630 186.8166  1.00267753  3228
ZHONGXING-6B            
1 31800U 07031A   08106.94699620 -.00000376  00000-0  10000-3 0  2043
2 31800   0.0154 149.0055 0002441 234.9643 276.9551  1.00272133  2927
DIRECTV 10              
1 31862U 07032A   08107.52199817 -.00000116  00000-0  10000-3 0  1647
2 31862   0.0454  41.6493 0000223  52.4880 196.0244  1.00271464  2863
SPACEWAY 3              
1 32018U 07036A   08106.32352073 -.00000167  00000-0  10000-3 0   956
2 32018   0.0532  32.7209 0000186  37.0004 155.6078  1.00270407  2575
BSAT-3A                 
1 32019U 07036B   08106.72004929 -.00000365  00000-0  10000-3 0  1260
2 32019   0.0462  34.0590 0004392 306.4871 232.6746  1.00269430  2510
INSAT-4CR               
1 32050U 07037A   08107.86401243 -.00000089  00000-0  10000-3 0  1445
2 32050   0.0792 102.3352 0002366 255.0526 233.0596  1.00272909  2323
OPTUS D2                
1 32252U 07044A   08107.30358795 -.00000196  00000-0  00000+0 0  1768
2 32252   0.0562  98.7147 0002944 284.7303  82.6410  1.00270472  1994
INTELSAT 11 (IS-11)     
1 32253U 07044B   08104.60124813 -.00000286  00000-0  00000+0 0   894
2 32253   0.0210 145.3428 0002164 242.3749 347.8956  1.00274301  1967
STAR ONE C1             
1 32293U 07056A   08106.36444980 -.00000292  00000-0  00000+0 0   758
2 32293   0.0576  87.4352 0005989 303.4734 239.1690  1.00270136  1600
